start=new Date('2023-05-18T00:00:00.000Z').valueOf();
sats=[{"ARG_OF_PERICENTER":"72.2622","COUNTRY_CODE":"US","INCLINATION":"97.6561","ECCENTRICITY":"0.00055630","CENTER_NAME":"EARTH","REV_AT_EPOCH":"3915","MEAN_ANOMALY":"287.9209","OBJECT_TYPE":"PAYLOAD","OBJECT_NAME":"STARLINK-4467","TIME_SYSTEM":"UTC","PERIAPSIS":"559.140","SEMIMAJOR_AXIS":"6941.137","TLE_LINE2":"2 53686  97.6561  19.1871 0005563  72.2622 287.9209 15.01263247 39157","OBJECT_ID":"2022-105AQ","APOAPSIS":"566.863","ELEMENT_SET_NO":"999","MEAN_ELEMENT_THEORY":"SGP4","REF_FRAME":"TEME","NORAD_CAT_ID":"53686","EPOCH":"2023-05-17T16:13:56.493120","EPHEMERIS_TYPE":"0","BSTAR":"0.00014367000000","TLE_LINE1":"1 53686U 22105AQ  23137.67634830  .00001787  00000-0  14367-3 0  9998","DECAY_DATE":null,"RCS_SIZE":"LARGE","RA_OF_ASC_NODE":"19.1871","FILE":"3910633","MEAN_MOTION":"15.01263247","MEAN_MOTION_DOT":"0.00001787","CLASSIFICATION_TYPE":"U","SITE":"AFWTR","GP_ID":"232043946","MEAN_MOTION_DDOT":"0.0000000000000","PERIOD":"95.919","LAUNCH_DATE":"2022-08-31"},{"MEAN_MOTION_DOT":"0.00001731","MEAN_MOTION":"15.01263649","FILE":"3910633","RA_OF_ASC_NODE":"19.1897","RCS_SIZE":"LARGE","DECAY_DATE":null,"LAUNCH_DATE":"2022-08-31","MEAN_MOTION_DDOT":"0.0000000000000","GP_ID":"232045196","PERIOD":"95.919","CLASSIFICATION_TYPE":"U","SITE":"AFWTR","OBJECT_ID":"2022-105AR","SEMIMAJOR_AXIS":"6941.136","TLE_LINE2":"2 53687  97.6565  19.1897 0004636  77.2258 282.9484 15.01263649 39156","OBJECT_TYPE":"PAYLOAD","TIME_SYSTEM":"UTC","PERIAPSIS":"559.783","OBJECT_NAME":"STARLINK-4569","MEAN_ANOMALY":"282.9484","REV_AT_EPOCH":"3915","CENTER_NAME":"EARTH","COUNTRY_CODE":"US","ARG_OF_PERICENTER":"77.2258","ECCENTRICITY":"0.00046360","INCLINATION":"97.6565","NORAD_CAT_ID":"53687","REF_FRAME":"TEME","TLE_LINE1":"1 53687U 22105AR  23137.67819819  .00001731  00000-0  13927-3 0  9991","BSTAR":"0.00013927000000","EPOCH":"2023-05-17T16:16:36.323616","EPHEMERIS_TYPE":"0","MEAN_ELEMENT_THEORY":"SGP4","ELEMENT_SET_NO":"999","APOAPSIS":"566.219"},{"MEAN_MOTION_DOT":"0.00001512","MEAN_MOTION":"15.01263576","FILE":"3910633","RA_OF_ASC_NODE":"19.1822","RCS_SIZE":"LARGE","DECAY_DATE":null,"LAUNCH_DATE":"2022-08-31","MEAN_MOTION_DDOT":"0.0000000000000","GP_ID":"232044947","PERIOD":"95.919","SITE":"AFWTR","CLASSIFICATION_TYPE":"U","OBJECT_ID":"2022-105AS","TLE_LINE2":"2 53688  97.6556  19.1822 0005696  74.4268 285.7584 15.01263576 39153","SEMIMAJOR_AXIS":"6941.136","OBJECT_TYPE":"PAYLOAD","TIME_SYSTEM":"UTC","PERIAPSIS":"559.047","OBJECT_NAME":"STARLINK-4571","MEAN_ANOMALY":"285.7584","REV_AT_EPOCH":"3915","CENTER_NAME":"EARTH","COUNTRY_CODE":"US","ARG_OF_PERICENTER":"74.4268","ECCENTRICITY":"0.00056960","INCLINATION":"97.6556","REF_FRAME":"TEME","NORAD_CAT_ID":"53688","TLE_LINE1":"1 53688U 22105AS  23137.67264591  .00001512  00000-0  12229-3 0  9994","BSTAR":"0.00012229000000","EPHEMERIS_TYPE":"0","EPOCH":"2023-05-17T16:08:36.606624","MEAN_ELEMENT_THEORY":"SGP4","ELEMENT_SET_NO":"999","APOAPSIS":"566.954"},{"SEMIMAJOR_AXIS":"6941.140","TLE_LINE2":"2 53689  97.6544  19.1873 0003393  93.9615 266.1997 15.01262319 39156","OBJECT_ID":"2022-105AT","OBJECT_TYPE":"PAYLOAD","OBJECT_NAME":"STARLINK-4562","PERIAPSIS":"560.650","TIME_SYSTEM":"UTC","CENTER_NAME":"EARTH","REV_AT_EPOCH":"3915","MEAN_ANOMALY":"266.1997","COUNTRY_CODE":"US","ARG_OF_PERICENTER":"93.9615","INCLINATION":"97.6544","ECCENTRICITY":"0.00033930","NORAD_CAT_ID":"53689","REF_FRAME":"TEME","EPHEMERIS_TYPE":"0","EPOCH":"2023-05-17T16:08:57.630336","BSTAR":"0.00008794400000","TLE_LINE1":"1 53689U 22105AT  23137.67288924  .00001071  00000-0  87944-4 0  9998","MEAN_ELEMENT_THEORY":"SGP4","ELEMENT_SET_NO":"999","APOAPSIS":"565.360","MEAN_MOTION_DOT":"0.00001071","MEAN_MOTION":"15.01262319","FILE":"3910633","RCS_SIZE":"LARGE","DECAY_DATE":null,"RA_OF_ASC_NODE":"19.1873","LAUNCH_DATE":"2022-08-31","MEAN_MOTION_DDOT":"0.0000000000000","GP_ID":"232044195","PERIOD":"95.919","SITE":"AFWTR","CLASSIFICATION_TYPE":"U"},{"FILE":"3910633","DECAY_DATE":null,"RCS_SIZE":"LARGE","RA_OF_ASC_NODE":"19.1778","MEAN_MOTION_DOT":"-0.00008129","MEAN_MOTION":"15.01305706","GP_ID":"232044445","MEAN_MOTION_DDOT":"0.0000000000000","PERIOD":"95.917","SITE":"AFWTR","CLASSIFICATION_TYPE":"U","LAUNCH_DATE":"2022-08-31","CENTER_NAME":"EARTH","REV_AT_EPOCH":"3915","MEAN_ANOMALY":"294.0069","ARG_OF_PERICENTER":"66.1757","COUNTRY_CODE":"US","INCLINATION":"97.6550","ECCENTRICITY":"0.00057460","SEMIMAJOR_AXIS":"6941.006","TLE_LINE2":"2 53690  97.6550  19.1778 0005746  66.1757 294.0069 15.01305706 39150","OBJECT_ID":"2022-105AU","OBJECT_TYPE":"PAYLOAD","OBJECT_NAME":"STARLINK-4570","PERIAPSIS":"558.883","TIME_SYSTEM":"UTC","ELEMENT_SET_NO":"999","APOAPSIS":"566.859","NORAD_CAT_ID":"53690","REF_FRAME":"TEME","EPOCH":"2023-05-17T16:05:55.599360","EPHEMERIS_TYPE":"0","BSTAR":"-0.00062800000000","TLE_LINE1":"1 53690U 22105AU  23137.67078240 -.00008129  00000-0 -62800-3 0  9994","MEAN_ELEMENT_THEORY":"SGP4"},{"LAUNCH_DATE":"2022-08-31","CLASSIFICATION_TYPE":"U","SITE":"AFWTR","PERIOD":"95.919","GP_ID":"232044697","MEAN_MOTION_DDOT":"0.0000000000000","MEAN_MOTION":"15.01261118","MEAN_MOTION_DOT":"0.00000610","RA_OF_ASC_NODE":"19.1759","DECAY_DATE":null,"RCS_SIZE":"LARGE","FILE":"3910633","MEAN_ELEMENT_THEORY":"SGP4","BSTAR":"0.00005204700000","TLE_LINE1":"1 53691U 22105AV  23137.67449716  .00000610  00000-0  52047-4 0  9993","EPOCH":"2023-05-17T16:11:16.554624","EPHEMERIS_TYPE":"0","REF_FRAME":"TEME","NORAD_CAT_ID":"53691","APOAPSIS":"565.055","ELEMENT_SET_NO":"999","TIME_SYSTEM":"UTC","PERIAPSIS":"560.961","OBJECT_NAME":"STARLINK-4560","OBJECT_TYPE":"PAYLOAD","OBJECT_ID":"2022-105AV","TLE_LINE2":"2 53691  97.6557  19.1759 0002949  96.1956 263.9604 15.01261118 39151","SEMIMAJOR_AXIS":"6941.143","ECCENTRICITY":"0.00029490","INCLINATION":"97.6557","ARG_OF_PERICENTER":"96.1956","COUNTRY_CODE":"US","MEAN_ANOMALY":"263.9604","REV_AT_EPOCH":"3915","CENTER_NAME":"EARTH"},{"LAUNCH_DATE":"2022-08-31","MEAN_MOTION_DDOT":"0.0000000000000","GP_ID":"232045447","PERIOD":"95.920","CLASSIFICATION_TYPE":"U","SITE":"AFWTR","MEAN_MOTION_DOT":"0.00003501","MEAN_MOTION":"15.01250428","FILE":"3910633","DECAY_DATE":null,"RCS_SIZE":"LARGE","RA_OF_ASC_NODE":"19.1741","REF_FRAME":"TEME","NORAD_CAT_ID":"53692","EPHEMERIS_TYPE":"0","EPOCH":"2023-05-17T16:03:17.025984","BSTAR":"0.00027707000000","TLE_LINE1":"1 53692U 22105AW  23137.66894706  .00003501  00000-0  27707-3 0  9992","MEAN_ELEMENT_THEORY":"SGP4","ELEMENT_SET_NO":"999","APOAPSIS":"566.729","SEMIMAJOR_AXIS":"6941.176","TLE_LINE2":"2 53692  97.6545  19.1741 0005313  58.7183 301.4561 15.01250428 39156","OBJECT_ID":"2022-105AW","OBJECT_TYPE":"PAYLOAD","OBJECT_NAME":"STARLINK-4572","PERIAPSIS":"559.354","TIME_SYSTEM":"UTC","CENTER_NAME":"EARTH","MEAN_ANOMALY":"301.4561","REV_AT_EPOCH":"3915","COUNTRY_CODE":"US","ARG_OF_PERICENTER":"58.7183","INCLINATION":"97.6545","ECCENTRICITY":"0.00053130"},{"OBJECT_TYPE":"PAYLOAD","OBJECT_NAME":"STARLINK-4566","TIME_SYSTEM":"UTC","PERIAPSIS":"559.726","SEMIMAJOR_AXIS":"6941.145","TLE_LINE2":"2 53693  97.6554  19.1686 0004731  52.7233 307.4422 15.01260571 39150","OBJECT_ID":"2022-105AX","COUNTRY_CODE":"US","ARG_OF_PERICENTER":"52.7233","INCLINATION":"97.6554","ECCENTRICITY":"0.00047310","CENTER_NAME":"EARTH","REV_AT_EPOCH":"3915","MEAN_ANOMALY":"307.4422","MEAN_ELEMENT_THEORY":"SGP4","REF_FRAME":"TEME","NORAD_CAT_ID":"53693","EPHEMERIS_TYPE":"0","EPOCH":"2023-05-17T16:00:36.794592","TLE_LINE1":"1 53693U 22105AX  23137.66709253  .00000575  00000-0  49365-4 0  9998","BSTAR":"0.00004936500000","APOAPSIS":"566.294","ELEMENT_SET_NO":"999","MEAN_MOTION":"15.01260571","MEAN_MOTION_DOT":"0.00000575","RCS_SIZE":"LARGE","DECAY_DATE":null,"RA_OF_ASC_NODE":"19.1686","FILE":"3910633","LAUNCH_DATE":"2022-08-31","SITE":"AFWTR","CLASSIFICATION_TYPE":"U","GP_ID":"232043697","MEAN_MOTION_DDOT":"0.0000000000000","PERIOD":"95.919"},{"FILE":"3910633","RA_OF_ASC_NODE":"173.6341","RCS_SIZE":"LARGE","DECAY_DATE":null,"MEAN_MOTION_DOT":"-0.00000405","MEAN_MOTION":"15.08838315","GP_ID":"232044948","MEAN_MOTION_DDOT":"0.0000000000000","PERIOD":"95.438","SITE":"AFETR","CLASSIFICATION_TYPE":"U","LAUNCH_DATE":"2022-09-05","REV_AT_EPOCH":"3983","MEAN_ANOMALY":"273.5907","CENTER_NAME":"EARTH","COUNTRY_CODE":"US","ARG_OF_PERICENTER":"86.5213","ECCENTRICITY":"0.00011220","INCLINATION":"53.2151","OBJECT_ID":"2022-107A","TLE_LINE2":"2 53700  53.2151 173.6341 0001122  86.5213 273.5907 15.08838315 39838","SEMIMAJOR_AXIS":"6917.886","OBJECT_TYPE":"PAYLOAD","TIME_SYSTEM":"UTC","PERIAPSIS":"538.974","OBJECT_NAME":"STARLINK-4725","ELEMENT_SET_NO":"999","APOAPSIS":"540.527","NORAD_CAT_ID":"53700","REF_FRAME":"TEME","TLE_LINE1":"1 53700U 22107A   23137.79987146 -.00000405  00000-0 -73634-5 0  9993","BSTAR":"-0.00000736340000","EPOCH":"2023-05-17T19:11:48.894144","EPHEMERIS_TYPE":"0","MEAN_ELEMENT_THEORY":"SGP4"},{"LAUNCH_DATE":"2022-09-05","PERIOD":"95.438","GP_ID":"232044196","MEAN_MOTION_DDOT":"0.0000000000000","SITE":"AFETR","CLASSIFICATION_TYPE":"U","MEAN_MOTION_DOT":"0.00000209","MEAN_MOTION":"15.08837510","FILE":"3910633","DECAY_DATE":null,"RCS_SIZE":"LARGE","RA_OF_ASC_NODE":"173.6124","EPHEMERIS_TYPE":"0","EPOCH":"2023-05-17T19:06:30.693312","TLE_LINE1":"1 53701U 22107B   23137.79618858  .00000209  00000-0  31222-4 0  9991","BSTAR":"0.00003122200000","NORAD_CAT_ID":"53701","REF_FRAME":"TEME","MEAN_ELEMENT_THEORY":"SGP4","ELEMENT_SET_NO":"999","APOAPSIS":"540.553","SEMIMAJOR_AXIS":"6917.888","TLE_LINE2":"2 53701  53.2157 173.6124 0001156  82.7241 277.3882 15.08837510 39830","OBJECT_ID":"2022-107B","OBJECT_NAME":"STARLINK-4711","TIME_SYSTEM":"UTC","PERIAPSIS":"538.953","OBJECT_TYPE":"PAYLOAD","CENTER_NAME":"EARTH","MEAN_ANOMALY":"277.3882","REV_AT_EPOCH":"3983","INCLINATION":"53.2157","ECCENTRICITY":"0.00011560","ARG_OF_PERICENTER":"82.7241","COUNTRY_CODE":"US"}];
